GOES 1 (SMS-C) [-]      
1 08366U 75100A   23206.59451984  .00000027  00000+0  00000+0 0  9991
2 08366   7.2886 290.6416 0002568 244.4848 222.6035  1.00235540174461
GOES 2 [-]              
1 10061U 77048A   23206.47108451  .00000106  00000+0  00000+0 0  9992
2 10061   8.9267 302.9141 0009893  38.9859   5.1476  0.99394897 35765
GOES 3 [-]              
1 10953U 78062A   23205.99266836  .00000108  00000+0  00000+0 0  9999
2 10953   9.2942 307.7263 0003615 170.6005 225.4338  0.99359485118029
GOES 4 [-]              
1 11964U 80074A   23206.35875125 -.00000089  00000+0  00000+0 0  9995
2 11964  10.2848 311.5628 0032317  88.1878 313.3525  0.99228503116949
GOES 5 [-]              
1 12472U 81049A   23206.45088892 -.00000111  00000+0  00000+0 0  9997
2 12472  11.2538 323.2786 0002676 181.2891 221.3559  1.00205187112241
GOES 6 [-]              
1 14050U 83041A   23206.44266509 -.00000042  00000+0  00000+0 0  9990
2 14050  11.8812 328.6846 0005435 162.2662 219.2863  1.00219035205416
GOES 7 [-]              
1 17561U 87022A   23205.93216456  .00000042  00000+0  00000+0 0  9991
2 17561  13.8905 345.3336 0005130  94.3849 264.8736  0.99889489116380
GOES 8 [-]              
1 23051U 94022A   23206.24129694 -.00000183  00000+0  00000+0 0  9999
2 23051  13.5189  21.3513 0006956  67.5803 120.2094  0.98907805113661
GOES 9 [-]              
1 23581U 95025A   23206.40705914 -.00000120  00000+0  00000+0 0  9995
2 23581  13.0190  21.8390 0009114 116.3553 243.0482  0.98799531102307
GOES 10 [-]             
1 24786U 97019A   23206.57866470  .00000050  00000+0  00000+0 0  9992
2 24786  11.8778  28.1727 0026716 205.9771 351.2797  0.99121065 95585
GOES 11 [-]             
1 26352U 00022A   23206.31382230 -.00000135  00000+0  00000+0 0  9995
2 26352   9.5388  56.0413 0001679 114.7081  68.5816  0.99045247 41994
GOES 12 [-]             
1 26871U 01031A   23206.58901810  .00000075  00000+0  00000+0 0  9994
2 26871  10.2436  45.4656 0004265 356.6918 345.5870  0.99135473 80277
EWS-G1 (GOES 13) [+]    
1 29155U 06018A   23206.57631125  .00000049  00000+0  00000+0 0  9991
2 29155   1.6171  91.3666 0003222  96.1675  24.6714  1.00267183 32775
GOES 14 [B]             
1 35491U 09033A   23206.60089865 -.00000051  00000+0  00000+0 0  9997
2 35491   0.4218 102.2350 0005335 345.0596 323.4687  1.00272168 51501
GOES 15 [B]             
1 36411U 10008A   23206.54699119 -.00000095  00000+0  00000+0 0  9994
2 36411   0.4469  95.2548 0001594  76.5974 134.7384  0.99991058 49047
GOES 16 [+]             
1 41866U 16071A   23206.54899465 -.00000233  00000+0  00000+0 0  9990
2 41866   0.0474 241.8692 0000374 256.7940 286.7589  1.00272079 24493
GOES 17 [+]             
1 43226U 18022A   23206.60264149 -.00000076  00000+0  00000+0 0  9997
2 43226   0.0313 211.8627 0002317 268.8150 294.5966  1.00272094 19811
GOES 18 [+]             
1 51850U 22021A   23206.61451524  .00000112  00000+0  00000+0 0  9999
2 51850   0.0064 221.1306 0000395 249.8581 276.2806  1.00271494  5172
